{"type":"FeatureCollection","features":[{"type":"Feature","properties":{"stroke":"#555555","stroke-width":2,"stroke-opacity":1,"fill":"#7297ee","fill-opacity":0.5},"geometry":{"coordinates":[[[-77.10453683302724,-12.063301307989065],[-77.1039734610803,-12.066606873672427],[-77.10410101695909,-12.068727403845529],[-77.10482383360578,-12.071825010897001],[-77.1021983085813,-12.073082753975072],[-77.10106093532814,-12.073633664327872],[-77.0998491544784,-12.073446562825566],[-77.09925389371045,-12.072895652088008],[-77.09801022389118,-12.069122402811615],[-77.09748937071923,-12.067168192217778],[-77.0971385920525,-12.062542477386799],[-77.10080582357003,-12.063041434736718],[-77.10453683302724,-12.063301307989065]]],"type":"Polygon"},"id":0},{"type":"Feature","properties":{"stroke":"#555555","stroke-width":2,"stroke-opacity":1,"fill":"#66e575","fill-opacity":0.5},"geometry":{"coordinates":[[[-77.09151292777206,-12.061993738093278],[-77.09701256458685,-12.062491694663734],[-77.09726370492196,-12.06679603949216],[-77.09781885724196,-12.069239015268423],[-77.09888331942048,-12.072481049302553],[-77.09903273797092,-12.072995624131522],[-77.0988898158787,-12.074107356498871],[-77.09782439664747,-12.075180967948427],[-77.09489449376068,-12.076603972940134],[-77.09453069207196,-12.075848002479006],[-77.0937745632932,-12.074836364387139],[-77.09354823815343,-12.073900875306308],[-77.09473749316314,-12.073495605573996],[-77.09422395122695,-12.069654322883963],[-77.09462036956353,-12.069539788380496],[-77.09441315088803,-12.067495779773154],[-77.09426899876559,-12.066914291718035],[-77.09402574205889,-12.066420906924122],[-77.09412832465287,-12.066143542469248],[-77.09303713257661,-12.063806109537865],[-77.09132240217173,-12.06350122547886],[-77.09151292777206,-12.061993738093278]]],"type":"Polygon"},"id":1},{"type":"Feature","properties":{"stroke":"#555555","stroke-width":2,"stroke-opacity":1,"fill":"#ffa34d","fill-opacity":0.5},"geometry":{"coordinates":[[[-77.09396145977469,-12.066400062218307],[-77.09426548699707,-12.067028659858877],[-77.09438709788601,-12.067597794288773],[-77.09456951421993,-12.06951755225721],[-77.09417862207653,-12.069661958273699],[-77.09466506563233,-12.07341648738847],[-77.09356188113941,-12.073883676243739],[-77.09374500626983,-12.074845935011979],[-77.09449204458774,-12.075797295471446],[-77.09485687725505,-12.076595756105675],[-77.09324987622169,-12.077402708583378],[-77.09144308587163,-12.07784440785693],[-77.08885451123477,-12.07787838469413],[-77.08683924507426,-12.072943203954395],[-77.08806181297528,-12.072398833078907],[-77.08747113151428,-12.071345527578174],[-77.08754062345108,-12.070946289732916],[-77.08792282910215,-12.070623501253309],[-77.08840058634502,-12.070564040233819],[-77.08891308937736,-12.07030071244256],[-77.089616695235,-12.06984201180299],[-77.09041585250503,-12.069374815898769],[-77.09100653396605,-12.06929836558281],[-77.09134530717104,-12.069187937341738],[-77.09111945837734,-12.068134619217474],[-77.09149297753603,-12.067658925804537],[-77.09310952352544,-12.067284635327852],[-77.09396145977469,-12.066400062218307]]],"type":"Polygon"},"id":2},{"type":"Feature","properties":{"stroke":"#555555","stroke-width":2,"stroke-opacity":1,"fill":"#f769f2","fill-opacity":0.5},"geometry":{"coordinates":[[[-77.08702329202137,-12.07365022545008],[-77.08868103358904,-12.077823589912299],[-77.0816150571197,-12.077731615638427],[-77.07986325830528,-12.074880397467965],[-77.07908729416692,-12.07409860654532],[-77.07998082862902,-12.073753698058866],[-77.08143870064619,-12.073638728465127],[-77.08319049847279,-12.073029388793216],[-77.08380186415765,-12.074696446868302],[-77.08702329202137,-12.07365022545008]]],"type":"Polygon"},"id":3},{"type":"Feature","properties":{"stroke":"#555555","stroke-width":2,"stroke-opacity":1,"fill":"#662af4","fill-opacity":0.5},"geometry":{"coordinates":[[[-77.08316209506654,-12.072998621991232],[-77.08143595673279,-12.073605019608507],[-77.0798162558832,-12.073745305428858],[-77.07908970435905,-12.074071130276806],[-77.07855288922042,-12.073107230621034],[-77.07846033488634,-12.072559661666332],[-77.07831687566835,-12.071419266530015],[-77.0780253295155,-12.069898732131946],[-77.07789697061035,-12.068535268598552],[-77.07820040311083,-12.064867735269601],[-77.07917507209932,-12.060378715300814],[-77.09143703679112,-12.061885312574049],[-77.09120122977782,-12.063514887849223],[-77.08843442748808,-12.063315034810316],[-77.08705102634343,-12.064160565878637],[-77.08714534914867,-12.064821615583014],[-77.08492876322363,-12.065451917272],[-77.08387549189797,-12.064498777558768],[-77.08351392114419,-12.064621763519085],[-77.08346675974134,-12.065328931693415],[-77.08192615392102,-12.06508296036607],[-77.0816589059729,-12.06706609776596],[-77.0818475515834,-12.069018474514962],[-77.08316209506654,-12.072998621991232]]],"type":"Polygon"},"id":4},{"type":"Feature","properties":{"stroke":"#555555","stroke-width":2,"stroke-opacity":1,"fill":"#f26363","fill-opacity":0.5},"geometry":{"coordinates":[[[-77.08180710083369,-12.078428098078575],[-77.08692918833982,-12.078021492907311],[-77.08990382956239,-12.084089229517133],[-77.0905755227415,-12.084714761552434],[-77.09210639623772,-12.087592190082503],[-77.08554939140421,-12.090594691172043],[-77.08295857485517,-12.084996250457138],[-77.08180710083369,-12.078428098078575]]],"type":"Polygon"},"id":5},{"type":"Feature","properties":{"stroke":"#555555","stroke-width":2,"stroke-opacity":1,"fill":"#dddf81","fill-opacity":0.5},"geometry":{"coordinates":[[[-77.08094862775809,-12.078323170800445],[-77.08172482490467,-12.079267719936766],[-77.08284599855335,-12.0847494126522],[-77.08344970744153,-12.086233667056135],[-77.08553681531056,-12.090669514664938],[-77.08467437404235,-12.090838176620224],[-77.07736087208689,-12.094514980818161],[-77.07532551067472,-12.089219017542362],[-77.07570498483277,-12.089050354566126],[-77.07401459994722,-12.085744538759442],[-77.07353163283659,-12.085744538759442],[-77.07242770801331,-12.08451328059624],[-77.07141002731672,-12.08166281187978],[-77.08094862775809,-12.078323170800445]]],"type":"Polygon"},"id":6},{"type":"Feature","properties":{"stroke":"#555555","stroke-width":2,"stroke-opacity":1,"fill":"#6359e8","fill-opacity":0.5},"geometry":{"coordinates":[[[-77.09340837388469,-12.077441536867767],[-77.09695262649625,-12.08526076087125],[-77.09195336486556,-12.087680661031953],[-77.09059784367724,-12.084652742314915],[-77.09003822487512,-12.084129845209574],[-77.08707846301417,-12.078171178624913],[-77.09114502657907,-12.077903643544502],[-77.09340837388469,-12.077441536867767]]],"type":"Polygon"},"id":7},{"type":"Feature","properties":{"stroke":"#555555","stroke-width":2,"stroke-opacity":1,"fill":"#ecb6e0","fill-opacity":0.5},"geometry":{"coordinates":[[[-77.09871910617967,-12.07491262283547],[-77.09936224214714,-12.076375510132337],[-77.10001935933094,-12.07617043295518],[-77.10266180928409,-12.081379344574074],[-77.10227033521707,-12.081502388504461],[-77.10306726456825,-12.083197654686046],[-77.1016551616831,-12.08333436923256],[-77.09701339774426,-12.08524836555496],[-77.09349013114033,-12.077428237167211],[-77.09871910617967,-12.07491262283547]]],"type":"Polygon"},"id":8},{"type":"Feature","properties":{"stroke":"#555555","stroke-width":2,"stroke-opacity":1,"fill":"#e58a0b","fill-opacity":0.5},"geometry":{"coordinates":[[[-77.10495472882003,-12.072055184418318],[-77.10503861612045,-12.071918464111434],[-77.10600332007166,-12.074105980628701],[-77.10756921633973,-12.073627462917216],[-77.10923298112533,-12.076430197353133],[-77.10944269937518,-12.076361838324999],[-77.10996000439242,-12.077523939419706],[-77.11054721549294,-12.077264176082707],[-77.11105053929383,-12.07845361666459],[-77.11086878347666,-12.078535646854277],[-77.10927492477515,-12.079711410151603],[-77.10305328335112,-12.083170311768981],[-77.10234024130037,-12.081516060049324],[-77.10266180928409,-12.081338329918069],[-77.10006130298153,-12.076047386574345],[-77.09937622336426,-12.07634816651698],[-77.09874706861314,-12.07487160718891],[-77.10495472882003,-12.072055184418318]]],"type":"Polygon"},"id":9}]}